ONEWEB-0233             
1 48795U 21045AE  24127.78892723  .00000093  00000+0  21329-3 0  9998
2 48795  87.9054  52.7445 0001747  83.1386 276.9943 13.15550807142870
ONEWEB-0190             
1 48796U 21045AF  24127.86103221  .00000202  00000+0  50284-3 0  9990
2 48796  87.9056  52.6934 0001987 111.2665 248.8678 13.15549352142959
ONEWEB-0236             
1 48797U 21045AG  24128.18269814  .00000095  00000+0  21916-3 0  9998
2 48797  87.9060  52.6212 0002027  83.3055 276.8306 13.15550828144009
ONEWEB-0248             
1 48798U 21045AH  24128.49959709 -.00000042  00000+0 -14657-3 0  9990
2 48798  87.9051  52.5527 0002495  96.4301 263.7114 13.15549751144203
ONEWEB-0225             
1 48799U 21045AJ  24127.76120802  .00000014  00000+0  37763-5 0  9996
2 48799  87.9052  52.7098 0002031  95.1329 265.0033 13.15550201142993
ONEWEB-0215             
1 48800U 21045AK  24128.49169427  .00000079  00000+0  17596-3 0  9997
2 48800  87.9051  52.5407 0002342 104.0103 256.1288 13.15550755144081
ONEWEB-0216             
1 48801U 21045AL  24128.50117600 -.00000423  00000+0 -11575-2 0  9991
2 48801  87.9051  52.5794 0001620  82.6822 277.4492 13.15548350144090
ONEWEB-0239             
1 48802U 21045AM  24127.82142308 -.00000134  00000+0 -39084-3 0  9994
2 48802  87.9061  52.6867 0002600 100.4743 259.6680 13.15550693144065
